start=new Date('2022-11-09T00:00:00.000Z').valueOf();
sats=[{"TIME_SYSTEM":"UTC","SEMIMAJOR_AXIS":"6732.250","MEAN_MOTION_DDOT":"0.0000000000000","EPHEMERIS_TYPE":"0","BSTAR":"-0.00490330000000","PERIOD":"91.622","MEAN_ELEMENT_THEORY":"SGP4","RA_OF_ASC_NODE":"283.5412","LAUNCH_DATE":"2022-10-05","PERIAPSIS":"349.966","NORAD_CAT_ID":"53998","MEAN_MOTION":"15.71673806","MEAN_MOTION_DOT":"-0.00602367","REF_FRAME":"TEME","CENTER_NAME":"EARTH","DECAY_DATE":null,"COUNTRY_CODE":"US","ECCENTRICITY":"0.00061630","MEAN_ANOMALY":"327.9086","OBJECT_TYPE":"PAYLOAD","ELEMENT_SET_NO":"999","ARG_OF_PERICENTER":"270.7847","OBJECT_ID":"2022-125AL","APOAPSIS":"358.264","EPOCH":"2022-11-08T22:00:00.999936","OBJECT_NAME":"STARLINK-5128","CLASSIFICATION_TYPE":"U","SITE":"AFWTR","RCS_SIZE":"LARGE","FILE":"3649076","REV_AT_EPOCH":"130","TLE_LINE1":"1 53998U 22125AL  22312.91667824 -.00602367  00000-0 -49033-2 0  9996","INCLINATION":"53.2162","GP_ID":"217205034","TLE_LINE2":"2 53998  53.2162 283.5412 0006163 270.7847 327.9086 15.71673806  1304"},{"FILE":"3649076","INCLINATION":"53.2172","TLE_LINE1":"1 53999U 22125AM  22312.91667824 -.01151760  00000-0 -96729-2 0  9998","REV_AT_EPOCH":"130","GP_ID":"217204180","TLE_LINE2":"2 53999  53.2172 283.5497 0006538 272.4969 323.4672 15.71997295  1302","ARG_OF_PERICENTER":"272.4969","OBJECT_ID":"2022-125AM","APOAPSIS":"357.592","OBJECT_TYPE":"PAYLOAD","ELEMENT_SET_NO":"999","RCS_SIZE":"LARGE","EPOCH":"2022-11-08T22:00:00.999936","OBJECT_NAME":"STARLINK-5079","CLASSIFICATION_TYPE":"U","SITE":"AFWTR","REF_FRAME":"TEME","CENTER_NAME":"EARTH","COUNTRY_CODE":"US","DECAY_DATE":null,"ECCENTRICITY":"0.00065380","MEAN_ANOMALY":"323.4672","EPHEMERIS_TYPE":"0","BSTAR":"-0.00967290000000","PERIOD":"91.603","MEAN_ELEMENT_THEORY":"SGP4","TIME_SYSTEM":"UTC","SEMIMAJOR_AXIS":"6731.326","MEAN_MOTION_DDOT":"0.0000000000000","MEAN_MOTION":"15.71997295","MEAN_MOTION_DOT":"-0.01151760","RA_OF_ASC_NODE":"283.5497","LAUNCH_DATE":"2022-10-05","PERIAPSIS":"348.790","NORAD_CAT_ID":"53999"},{"DECAY_DATE":null,"COUNTRY_CODE":"US","ECCENTRICITY":"0.00025500","MEAN_ANOMALY":"222.0454","REF_FRAME":"TEME","CENTER_NAME":"EARTH","MEAN_MOTION":"15.73309841","MEAN_MOTION_DOT":"-0.00031661","RA_OF_ASC_NODE":"283.5574","LAUNCH_DATE":"2022-10-05","PERIAPSIS":"347.731","NORAD_CAT_ID":"54000","BSTAR":"-0.00022091000000","EPHEMERIS_TYPE":"0","PERIOD":"91.527","MEAN_ELEMENT_THEORY":"SGP4","TIME_SYSTEM":"UTC","SEMIMAJOR_AXIS":"6727.582","MEAN_MOTION_DDOT":"0.0000000000000","TLE_LINE2":"2 54000  53.2177 283.5574 0002550  18.3444 222.0454 15.73309841  1300","FILE":"3649076","TLE_LINE1":"1 54000U 22125AN  22312.91667824 -.00031661  00000-0 -22091-3 0  9990","REV_AT_EPOCH":"130","INCLINATION":"53.2177","GP_ID":"217204925","RCS_SIZE":"LARGE","EPOCH":"2022-11-08T22:00:00.999936","OBJECT_NAME":"STARLINK-5088","CLASSIFICATION_TYPE":"U","SITE":"AFWTR","ARG_OF_PERICENTER":"18.3444","OBJECT_ID":"2022-125AN","APOAPSIS":"351.163","ELEMENT_SET_NO":"999","OBJECT_TYPE":"PAYLOAD"},{"MEAN_ANOMALY":"325.5537","COUNTRY_CODE":"US","DECAY_DATE":null,"ECCENTRICITY":"0.00058430","REF_FRAME":"TEME","CENTER_NAME":"EARTH","LAUNCH_DATE":"2022-10-05","RA_OF_ASC_NODE":"283.5399","NORAD_CAT_ID":"54001","PERIAPSIS":"349.059","MEAN_MOTION_DOT":"-0.01138167","MEAN_MOTION":"15.72067162","SEMIMAJOR_AXIS":"6731.127","TIME_SYSTEM":"UTC","MEAN_MOTION_DDOT":"0.0000000000000","PERIOD":"91.599","BSTAR":"-0.00952140000000","EPHEMERIS_TYPE":"0","MEAN_ELEMENT_THEORY":"SGP4","TLE_LINE2":"2 54001  53.2174 283.5399 0005843 274.1392 325.5537 15.72067162  1302","REV_AT_EPOCH":"130","TLE_LINE1":"1 54001U 22125AP  22312.91667824 -.01138167  00000-0 -95214-2 0  9997","INCLINATION":"53.2174","FILE":"3649076","GP_ID":"217204420","SITE":"AFWTR","OBJECT_NAME":"STARLINK-5105","CLASSIFICATION_TYPE":"U","EPOCH":"2022-11-08T22:00:00.999936","RCS_SIZE":"LARGE","ELEMENT_SET_NO":"999","OBJECT_TYPE":"PAYLOAD","ARG_OF_PERICENTER":"274.1392","APOAPSIS":"356.925","OBJECT_ID":"2022-125AP"},{"MEAN_MOTION":"15.73235777","MEAN_MOTION_DOT":"0.00132431","PERIAPSIS":"347.764","NORAD_CAT_ID":"54002","RA_OF_ASC_NODE":"283.5213","LAUNCH_DATE":"2022-10-05","MEAN_ELEMENT_THEORY":"SGP4","BSTAR":"0.00093167000000","EPHEMERIS_TYPE":"0","PERIOD":"91.531","MEAN_MOTION_DDOT":"0.0000000000000","TIME_SYSTEM":"UTC","SEMIMAJOR_AXIS":"6727.793","DECAY_DATE":null,"ECCENTRICITY":"0.00028150","COUNTRY_CODE":"US","MEAN_ANOMALY":"247.4202","CENTER_NAME":"EARTH","REF_FRAME":"TEME","RCS_SIZE":"LARGE","EPOCH":"2022-11-08T22:00:00.999936","OBJECT_NAME":"STARLINK-5109","CLASSIFICATION_TYPE":"U","SITE":"AFWTR","OBJECT_ID":"2022-125AQ","APOAPSIS":"351.552","ARG_OF_PERICENTER":"13.2853","ELEMENT_SET_NO":"999","OBJECT_TYPE":"PAYLOAD","TLE_LINE2":"2 54002  53.2191 283.5213 0002815  13.2853 247.4202 15.73235777  1308","GP_ID":"217204771","FILE":"3649076","INCLINATION":"53.2191","TLE_LINE1":"1 54002U 22125AQ  22312.91667824  .00132431  00000-0  93167-3 0  9999","REV_AT_EPOCH":"130"},{"ELEMENT_SET_NO":"999","OBJECT_TYPE":"PAYLOAD","ARG_OF_PERICENTER":"274.0830","APOAPSIS":"357.354","OBJECT_ID":"2022-125AR","SITE":"AFWTR","OBJECT_NAME":"STARLINK-5114","CLASSIFICATION_TYPE":"U","EPOCH":"2022-11-08T22:00:00.999936","RCS_SIZE":"LARGE","TLE_LINE1":"1 54003U 22125AR  22312.91667824 -.01043007  00000-0 -86713-2 0  9991","INCLINATION":"53.2172","REV_AT_EPOCH":"130","FILE":"3649076","GP_ID":"217204592","TLE_LINE2":"2 54003  53.2172 283.5458 0006096 274.0830 323.8123 15.71976401  1301","TIME_SYSTEM":"UTC","SEMIMAJOR_AXIS":"6731.386","MEAN_MOTION_DDOT":"0.0000000000000","PERIOD":"91.604","EPHEMERIS_TYPE":"0","BSTAR":"-0.00867130000000","MEAN_ELEMENT_THEORY":"SGP4","LAUNCH_DATE":"2022-10-05","RA_OF_ASC_NODE":"283.5458","NORAD_CAT_ID":"54003","PERIAPSIS":"349.148","MEAN_MOTION_DOT":"-0.01043007","MEAN_MOTION":"15.71976401","REF_FRAME":"TEME","CENTER_NAME":"EARTH","MEAN_ANOMALY":"323.8123","DECAY_DATE":null,"ECCENTRICITY":"0.00060960","COUNTRY_CODE":"US"},{"MEAN_ANOMALY":"326.2428","ECCENTRICITY":"0.00061800","DECAY_DATE":null,"COUNTRY_CODE":"US","REF_FRAME":"TEME","CENTER_NAME":"EARTH","MEAN_MOTION_DOT":"-0.01028394","MEAN_MOTION":"15.72007720","LAUNCH_DATE":"2022-10-05","RA_OF_ASC_NODE":"283.5392","NORAD_CAT_ID":"54004","PERIAPSIS":"349.002","PERIOD":"91.603","BSTAR":"-0.00852500000000","EPHEMERIS_TYPE":"0","MEAN_ELEMENT_THEORY":"SGP4","SEMIMAJOR_AXIS":"6731.297","TIME_SYSTEM":"UTC","MEAN_MOTION_DDOT":"0.0000000000000","TLE_LINE2":"2 54004  53.2171 283.5392 0006180 275.3130 326.2428 15.72007720  1304","TLE_LINE1":"1 54004U 22125AS  22312.91667824 -.01028394  00000-0 -85250-2 0  9999","REV_AT_EPOCH":"130","INCLINATION":"53.2171","FILE":"3649076","GP_ID":"217205189","RCS_SIZE":"LARGE","SITE":"AFWTR","OBJECT_NAME":"STARLINK-5129","EPOCH":"2022-11-08T22:00:00.999936","CLASSIFICATION_TYPE":"U","ARG_OF_PERICENTER":"275.3130","APOAPSIS":"357.322","OBJECT_ID":"2022-125AS","ELEMENT_SET_NO":"999","OBJECT_TYPE":"PAYLOAD"},{"MEAN_ELEMENT_THEORY":"SGP4","BSTAR":"-0.00946040000000","EPHEMERIS_TYPE":"0","PERIOD":"91.598","MEAN_MOTION_DDOT":"0.0000000000000","TIME_SYSTEM":"UTC","SEMIMAJOR_AXIS":"6731.082","MEAN_MOTION":"15.72083057","MEAN_MOTION_DOT":"-0.01132622","PERIAPSIS":"348.752","NORAD_CAT_ID":"54005","RA_OF_ASC_NODE":"283.5404","LAUNCH_DATE":"2022-10-05","CENTER_NAME":"EARTH","REF_FRAME":"TEME","COUNTRY_CODE":"US","DECAY_DATE":null,"ECCENTRICITY":"0.00062310","MEAN_ANOMALY":"325.2782","OBJECT_ID":"2022-125AT","APOAPSIS":"357.141","ARG_OF_PERICENTER":"275.0449","ELEMENT_SET_NO":"999","OBJECT_TYPE":"PAYLOAD","RCS_SIZE":"LARGE","OBJECT_NAME":"STARLINK-5135","EPOCH":"2022-11-08T22:00:00.999936","CLASSIFICATION_TYPE":"U","SITE":"AFWTR","GP_ID":"217204010","FILE":"3649076","REV_AT_EPOCH":"130","TLE_LINE1":"1 54005U 22125AT  22312.91667824 -.01132622  00000-0 -94604-2 0  9993","INCLINATION":"53.2172","TLE_LINE2":"2 54005  53.2172 283.5404 0006231 275.0449 325.2782 15.72083057  1306"},{"OBJECT_TYPE":"PAYLOAD","ELEMENT_SET_NO":"999","ARG_OF_PERICENTER":"272.0839","APOAPSIS":"357.186","OBJECT_ID":"2022-125AU","SITE":"AFWTR","EPOCH":"2022-11-08T22:00:00.999936","CLASSIFICATION_TYPE":"U","OBJECT_NAME":"STARLINK-5096","RCS_SIZE":"LARGE","INCLINATION":"53.2171","TLE_LINE1":"1 54006U 22125AU  22312.91667824 -.01052713  00000-0 -87324-2 0  9997","REV_AT_EPOCH":"130","FILE":"3649076","GP_ID":"217205035","TLE_LINE2":"2 54006  53.2171 283.5348 0006163 272.0839 332.4840 15.72051131  1300","TIME_SYSTEM":"UTC","SEMIMAJOR_AXIS":"6731.173","MEAN_MOTION_DDOT":"0.0000000000000","PERIOD":"91.600","BSTAR":"-0.00873240000000","EPHEMERIS_TYPE":"0","MEAN_ELEMENT_THEORY":"SGP4","LAUNCH_DATE":"2022-10-05","RA_OF_ASC_NODE":"283.5348","NORAD_CAT_ID":"54006","PERIAPSIS":"348.889","MEAN_MOTION_DOT":"-0.01052713","MEAN_MOTION":"15.72051131","REF_FRAME":"TEME","CENTER_NAME":"EARTH","MEAN_ANOMALY":"332.4840","COUNTRY_CODE":"US","DECAY_DATE":null,"ECCENTRICITY":"0.00061630"},{"NORAD_CAT_ID":"54007","PERIAPSIS":"348.526","LAUNCH_DATE":"2022-10-05","RA_OF_ASC_NODE":"283.5395","MEAN_MOTION_DOT":"-0.01258946","MEAN_MOTION":"15.72185834","MEAN_MOTION_DDOT":"0.0000000000000","SEMIMAJOR_AXIS":"6730.788","TIME_SYSTEM":"UTC","MEAN_ELEMENT_THEORY":"SGP4","PERIOD":"91.592","EPHEMERIS_TYPE":"0","BSTAR":"-0.01040200000000","MEAN_ANOMALY":"328.3505","ECCENTRICITY":"0.00061320","DECAY_DATE":null,"COUNTRY_CODE":"US","CENTER_NAME":"EARTH","REF_FRAME":"TEME","SITE":"AFWTR","CLASSIFICATION_TYPE":"U","EPOCH":"2022-11-08T22:00:00.999936","OBJECT_NAME":"STARLINK-5132","RCS_SIZE":"LARGE","OBJECT_TYPE":"PAYLOAD","ELEMENT_SET_NO":"999","APOAPSIS":"356.780","OBJECT_ID":"2022-125AV","ARG_OF_PERICENTER":"273.7578","TLE_LINE2":"2 54007  53.2171 283.5395 0006132 273.7578 328.3505 15.72185834  1307","GP_ID":"217204181","INCLINATION":"53.2171","TLE_LINE1":"1 54007U 22125AV  22312.91667824 -.01258946  00000-0 -10402-1 0  9996","REV_AT_EPOCH":"130","FILE":"3649076"}];
